{
  "norad_id": 63465,
  "name": "STARLINK-33685",
  "history": [
    {
      "epoch": "2026-03-28T10:45:31.483584Z",
      "apogee_km": 484.147328062033,
      "perigee_km": 481.64428607335867,
      "latitude_deg": -1.2551945016520762e-05,
      "longitude_deg": 166.756823289938,
      "height_km": 482.90171384874856,
      "semi_major_axis_km": 6861.032807067695,
      "eccentricity": 0.00018241,
      "inclination_deg": 43.002,
      "raan_deg": 154.0066,
      "arg_perigee_deg": 259.4706,
      "mean_anomaly_deg": 100.594,
      "mean_motion_rev_day": 15.27631194
    },
    {
      "epoch": "2026-03-29T05:35:23.378208Z",
      "apogee_km": 484.9435302009915,
      "perigee_km": 480.82142969743836,
      "latitude_deg": -3.2268299859698646e-05,
      "longitude_deg": -120.91359048124399,
      "height_km": 482.1644448724545,
      "semi_major_axis_km": 6861.019479949215,
      "eccentricity": 0.0003004,
      "inclination_deg": 43.003,
      "raan_deg": 149.5758,
      "arg_perigee_deg": 283.9319,
      "mean_anomaly_deg": 76.1198,
      "mean_motion_rev_day": 15.27635645
    },
    {
      "epoch": "2026-03-30T03:33:34.570656Z",
      "apogee_km": 483.48929639134803,
      "perigee_km": 482.4532690406586,
      "latitude_deg": 9.148908252778333e-06,
      "longitude_deg": -96.53544758105724,
      "height_km": 483.2156379118835,
      "semi_major_axis_km": 6861.1082827160035,
      "eccentricity": 7.55e-05,
      "inclination_deg": 42.9997,
      "raan_deg": 144.4028,
      "arg_perigee_deg": 205.1956,
      "mean_anomaly_deg": 154.8859,
      "mean_motion_rev_day": 15.27605987
    },
    {
      "epoch": "2026-03-30T03:33:34.571520Z",
      "apogee_km": 483.48963944676325,
      "perigee_km": 482.4529259852443,
      "latitude_deg": 1.0806058315070434e-05,
      "longitude_deg": -96.53544942362016,
      "height_km": 483.21594828716235,
      "semi_major_axis_km": 6861.1082827160035,
      "eccentricity": 7.555e-05,
      "inclination_deg": 42.9997,
      "raan_deg": 144.4028,
      "arg_perigee_deg": 205.1956,
      "mean_anomaly_deg": 154.8859,
      "mean_motion_rev_day": 15.27605987
    },
    {
      "epoch": "2026-03-30T12:58:30.914976Z",
      "apogee_km": 484.426058060727,
      "perigee_km": 481.5737462277675,
      "latitude_deg": 1.1137344625823796e-05,
      "longitude_deg": 119.63309993648345,
      "height_km": 482.2271206371912,
      "semi_major_axis_km": 6861.136902144247,
      "eccentricity": 0.00020786,
      "inclination_deg": 43.0045,
      "raan_deg": 142.1928,
      "arg_perigee_deg": 292.7047,
      "mean_anomaly_deg": 67.3585,
      "mean_motion_rev_day": 15.27596429
    },
    {
      "epoch": "2026-03-31T12:30:51.667776Z",
      "apogee_km": 484.54377023836423,
      "perigee_km": 481.4314268979615,
      "latitude_deg": 4.054370029006435e-06,
      "longitude_deg": 120.03880724308243,
      "height_km": 482.4855321677553,
      "semi_major_axis_km": 6861.124598568163,
      "eccentricity": 0.00022681,
      "inclination_deg": 43.0036,
      "raan_deg": 136.6517,
      "arg_perigee_deg": 280.3599,
      "mean_anomaly_deg": 79.6997,
      "mean_motion_rev_day": 15.27600538
    },
    {
      "epoch": "2026-04-01T19:53:59.524224Z",
      "apogee_km": 483.9975791115803,
      "perigee_km": 481.9817800931123,
      "latitude_deg": 1.9305044919592445e-05,
      "longitude_deg": 0.5805326739834104,
      "height_km": 482.69137866215226,
      "semi_major_axis_km": 6861.126679602346,
      "eccentricity": 0.0001469,
      "inclination_deg": 42.9999,
      "raan_deg": 129.2651,
      "arg_perigee_deg": 274.2704,
      "mean_anomaly_deg": 85.798,
      "mean_motion_rev_day": 15.27599843
    },
    {
      "epoch": "2026-04-02T19:26:19.789728Z",
      "apogee_km": 484.46131728589626,
      "perigee_km": 481.4232313832208,
      "latitude_deg": -5.613343873517743e-06,
      "longitude_deg": 0.9938564320526748,
      "height_km": 482.3153121673146,
      "semi_major_axis_km": 6861.079274334558,
      "eccentricity": 0.0002214,
      "inclination_deg": 43.0049,
      "raan_deg": 123.7296,
      "arg_perigee_deg": 285.4565,
      "mean_anomaly_deg": 74.6042,
      "mean_motion_rev_day": 15.27615675
    }
  ]
}